{
  "type": "FeatureCollection",
  "features": [
    {
      "type": "Feature",
      "properties": {
        "norad_id": 34121,
        "name": "COSMOS 2251 DEB",
        "group": "cosmos-2251-debris",
        "lat": -69.62022959087837,
        "lon": -49.30617527337695,
        "alt_km": 770.1366344401004,
        "timestamp": "2025-12-22T16:55:17.858564+00:00",
        "meta_object_name": "COSMOS 2251 DEB",
        "meta_object_id": "1993-036KS",
        "meta_epoch": "2025-12-22T05:27:52.103232",
        "meta_mean_motion": 13.91963089,
        "meta_eccentricity": 0.0240891,
        "meta_inclination": 73.9923,
        "meta_ra_of_asc_node": 80.911,
        "meta_arg_of_pericenter": 284.3753,
        "meta_mean_anomaly": 102.7576,
        "meta_ephemeris_type": 0,
        "meta_classification_type": "U",
        "meta_norad_cat_id": 34121,
        "meta_element_set_no": 999,
        "meta_rev_at_epoch": 85257,
        "meta_bstar": 0.0011252438,
        "meta_mean_motion_dot": 1.794e-05,
        "meta_mean_motion_ddot": 0,
        "tle_line1": "1 34121U 93036KS  25356.22768638  .00001794  00000+0  11252-2 0  9998",
        "tle_line2": "2 34121  73.9923  80.9110 0240891 284.3753 102.7576 13.91963089852575"
      },
      "geometry": {
        "type": "Point",
        "coordinates": [
          -49.30617527337695,
          -69.62022959087837
        ]
      }
    },
    {
      "type": "Feature",
      "properties": {
        "norad_id": 34122,
        "name": "COSMOS 2251 DEB",
        "group": "cosmos-2251-debris",
        "lat": -64.5136709065274,
        "lon": -43.63324317029543,
        "alt_km": 697.1272668702322,
        "timestamp": "2025-12-22T16:55:17.858575+00:00",
        "meta_object_name": "COSMOS 2251 DEB",
        "meta_object_id": "1993-036KT",
        "meta_epoch": "2025-12-22T01:50:10.399200",
        "meta_mean_motion": 14.6514907,
        "meta_eccentricity": 0.00848595,
        "meta_inclination": 74.0366,
        "meta_ra_of_asc_node": 100.6705,
        "meta_arg_of_pericenter": 354.8909,
        "meta_mean_anomaly": 181.8922,
        "meta_ephemeris_type": 0,
        "meta_classification_type": "U",
        "meta_norad_cat_id": 34122,
        "meta_element_set_no": 999,
        "meta_rev_at_epoch": 88821,
        "meta_bstar": 0.0010000679,
        "meta_mean_motion_dot": 5.641e-05,
        "meta_mean_motion_ddot": 0,
        "tle_line1": "1 34122U 93036KT  25356.07650925  .00005641  00000+0  10001-2 0  9997",
        "tle_line2": "2 34122  74.0366 100.6705 0084859 354.8909 181.8922 14.65149070888216"
      },
      "geometry": {
        "type": "Point",
        "coordinates": [
          -43.63324317029543,
          -64.5136709065274
        ]
      }
    },
    {
      "type": "Feature",
      "properties": {
        "norad_id": 34127,
        "name": "COSMOS 2251 DEB",
        "group": "cosmos-2251-debris",
        "lat": 38.302066936569396,
        "lon": 38.79440956578111,
        "alt_km": 865.1743456341674,
        "timestamp": "2025-12-22T16:55:17.858586+00:00",
        "meta_object_name": "COSMOS 2251 DEB",
        "meta_object_id": "1993-036KY",
        "meta_epoch": "2025-12-22T01:46:28.111872",
        "meta_mean_motion": 14.31623479,
        "meta_eccentricity": 0.0114796,
        "meta_inclination": 74.1791,
        "meta_ra_of_asc_node": 26.9935,
        "meta_arg_of_pericenter": 225.1428,
        "meta_mean_anomaly": 163.5218,
        "meta_ephemeris_type": 0,
        "meta_classification_type": "U",
        "meta_norad_cat_id": 34127,
        "meta_element_set_no": 999,
        "meta_rev_at_epoch": 86905,
        "meta_bstar": 0.0015210856,
        "meta_mean_motion_dot": 4.332e-05,
        "meta_mean_motion_ddot": 0,
        "tle_line1": "1 34127U 93036KY  25356.07393648  .00004332  00000+0  15211-2 0  9992",
        "tle_line2": "2 34127  74.1791  26.9935 0114796 225.1428 163.5218 14.31623479869058"
      },
      "geometry": {
        "type": "Point",
        "coordinates": [
          38.79440956578111,
          38.302066936569396
        ]
      }
    },
    {
      "type": "Feature",
      "properties": {
        "norad_id": 34128,
        "name": "COSMOS 2251 DEB",
        "group": "cosmos-2251-debris",
        "lat": -44.38890631168475,
        "lon": 112.69467425919211,
        "alt_km": 585.4378511518144,
        "timestamp": "2025-12-22T16:55:17.858596+00:00",
        "meta_object_name": "COSMOS 2251 DEB",
        "meta_object_id": "1993-036KZ",
        "meta_epoch": "2025-12-22T05:23:11.424192",
        "meta_mean_motion": 15.01502667,
        "meta_eccentricity": 0.00259463,
        "meta_inclination": 73.9995,
        "meta_ra_of_asc_node": 277.3619,
        "meta_arg_of_pericenter": 27.2664,
        "meta_mean_anomaly": 122.5343,
        "meta_ephemeris_type": 0,
        "meta_classification_type": "U",
        "meta_norad_cat_id": 34128,
        "meta_element_set_no": 999,
        "meta_rev_at_epoch": 89309,
        "meta_bstar": 0.0016774332,
        "meta_mean_motion_dot": 0.00021886,
        "meta_mean_motion_ddot": 0,
        "tle_line1": "1 34128U 93036KZ  25356.22443778  .00021886  00000+0  16774-2 0  9998",
        "tle_line2": "2 34128  73.9995 277.3619 0025946  27.2664 122.5343 15.01502667893092"
      },
      "geometry": {
        "type": "Point",
        "coordinates": [
          112.69467425919211,
          -44.38890631168475
        ]
      }
    },
    {
      "type": "Feature",
      "properties": {
        "norad_id": 34129,
        "name": "COSMOS 2251 DEB",
        "group": "cosmos-2251-debris",
        "lat": -48.869598982933745,
        "lon": -59.11206912985317,
        "alt_km": 648.7060196624516,
        "timestamp": "2025-12-22T16:55:17.858606+00:00",
        "meta_object_name": "COSMOS 2251 DEB",
        "meta_object_id": "1993-036LA",
        "meta_epoch": "2025-12-22T00:53:10.258656",
        "meta_mean_motion": 14.75890629,
        "meta_eccentricity": 0.00333862,
        "meta_inclination": 74.0353,
        "meta_ra_of_asc_node": 321.3307,
        "meta_arg_of_pericenter": 39.9385,
        "meta_mean_anomaly": 320.4236,
        "meta_ephemeris_type": 0,
        "meta_classification_type": "U",
        "meta_norad_cat_id": 34129,
        "meta_element_set_no": 999,
        "meta_rev_at_epoch": 61435,
        "meta_bstar": 0.0014549106,
        "meta_mean_motion_dot": 0.00010066,
        "meta_mean_motion_ddot": 0,
        "tle_line1": "1 34129U 93036LA  25356.03692429  .00010066  00000+0  14549-2 0  9993",
        "tle_line2": "2 34129  74.0353 321.3307 0033386  39.9385 320.4236 14.75890629614352"
      },
      "geometry": {
        "type": "Point",
        "coordinates": [
          -59.11206912985317,
          -48.869598982933745
        ]
      }
    },
    {
      "type": "Feature",
      "properties": {
        "norad_id": 34136,
        "name": "COSMOS 2251 DEB",
        "group": "cosmos-2251-debris",
        "lat": -70.14730086858944,
        "lon": -104.49184593225293,
        "alt_km": 660.4243098662118,
        "timestamp": "2025-12-22T16:55:17.858617+00:00",
        "meta_object_name": "COSMOS 2251 DEB",
        "meta_object_id": "1993-036LH",
        "meta_epoch": "2025-12-22T04:45:31.793760",
        "meta_mean_motion": 14.80136292,
        "meta_eccentricity": 0.00851335,
        "meta_inclination": 74.0198,
        "meta_ra_of_asc_node": 23.9773,
        "meta_arg_of_pericenter": 144.3718,
        "meta_mean_anomaly": 293.5284,
        "meta_ephemeris_type": 0,
        "meta_classification_type": "U",
        "meta_norad_cat_id": 34136,
        "meta_element_set_no": 999,
        "meta_rev_at_epoch": 90150,
        "meta_bstar": 0.00034784945,
        "meta_mean_motion_dot": 2.772e-05,
        "meta_mean_motion_ddot": 0,
        "tle_line1": "1 34136U 93036LH  25356.19828465  .00002772  00000+0  34785-3 0  9999",
        "tle_line2": "2 34136  74.0198  23.9773 0085133 144.3718 293.5284 14.80136292901501"
      },
      "geometry": {
        "type": "Point",
        "coordinates": [
          -104.49184593225293,
          -70.14730086858944
        ]
      }
    },
    {
      "type": "Feature",
      "properties": {
        "norad_id": 34139,
        "name": "COSMOS 2251 DEB",
        "group": "cosmos-2251-debris",
        "lat": -50.880110429740775,
        "lon": -145.54978233491138,
        "alt_km": 672.3733092857892,
        "timestamp": "2025-12-22T16:55:17.858628+00:00",
        "meta_object_name": "COSMOS 2251 DEB",
        "meta_object_id": "1993-036LL",
        "meta_epoch": "2025-12-22T03:05:41.877024",
        "meta_mean_motion": 14.59175422,
        "meta_eccentricity": 0.00424471,
        "meta_inclination": 74.0299,
        "meta_ra_of_asc_node": 236.1656,
        "meta_arg_of_pericenter": 305.7485,
        "meta_mean_anomaly": 215.4128,
        "meta_ephemeris_type": 0,
        "meta_classification_type": "U",
        "meta_norad_cat_id": 34139,
        "meta_element_set_no": 999,
        "meta_rev_at_epoch": 88286,
        "meta_bstar": 0.0012901805,
        "meta_mean_motion_dot": 6.132e-05,
        "meta_mean_motion_ddot": 0,
        "tle_line1": "1 34139U 93036LL  25356.12895691  .00006132  00000+0  12902-2 0  9990",
        "tle_line2": "2 34139  74.0299 236.1656 0042447 305.7485 215.4128 14.59175422882860"
      },
      "geometry": {
        "type": "Point",
        "coordinates": [
          -145.54978233491138,
          -50.880110429740775
        ]
      }
    }
  ]
}